{
  "type": "FeatureCollection",
  "features": [
    {
      "type": "Feature",
      "properties": {
        "norad_id": 38867,
        "name": "INTELSAT 23 (IS-23)",
        "group": "intelsat",
        "lat": -0.03224760167424355,
        "lon": -46.07523835620652,
        "alt_km": 35785.984318293275,
        "timestamp": "2025-12-14T18:52:55.165979+00:00",
        "meta_object_name": "INTELSAT 23 (IS-23)",
        "meta_object_id": "2012-057A",
        "meta_epoch": "2025-12-13T21:45:27.824256",
        "meta_mean_motion": 1.0026998,
        "meta_eccentricity": 0.00010307,
        "meta_inclination": 0.0432,
        "meta_ra_of_asc_node": 97.7751,
        "meta_arg_of_pericenter": 135.2793,
        "meta_mean_anomaly": 123.1432,
        "meta_ephemeris_type": 0,
        "meta_classification_type": "U",
        "meta_norad_cat_id": 38867,
        "meta_element_set_no": 999,
        "meta_rev_at_epoch": 4809,
        "meta_bstar": 0,
        "meta_mean_motion_dot": -2.68e-06,
        "meta_mean_motion_ddot": 0,
        "tle_line1": "1 38867U 12057A   25347.90657204 -.00000268  00000+0  00000+0 0  9996",
        "tle_line2": "2 38867   0.0432  97.7751 0001030 135.2793 123.1432  1.00269980 48095"
      },
      "geometry": {
        "type": "Point",
        "coordinates": [
          -46.07523835620652,
          -0.03224760167424355
        ]
      }
    },
    {
      "type": "Feature",
      "properties": {
        "norad_id": 39360,
        "name": "FM-6",
        "group": "intelsat",
        "lat": -0.011039945496003728,
        "lon": -109.1909742861485,
        "alt_km": 35782.49200880556,
        "timestamp": "2025-12-14T18:52:55.165991+00:00",
        "meta_object_name": "FM-6",
        "meta_object_id": "2013-058A",
        "meta_epoch": "2025-12-13T23:10:12.207648",
        "meta_mean_motion": 1.00271098,
        "meta_eccentricity": 0.00030473,
        "meta_inclination": 0.0084,
        "meta_ra_of_asc_node": 59.3397,
        "meta_arg_of_pericenter": 118.3918,
        "meta_mean_anomaly": 136.5674,
        "meta_ephemeris_type": 0,
        "meta_classification_type": "U",
        "meta_norad_cat_id": 39360,
        "meta_element_set_no": 999,
        "meta_rev_at_epoch": 4421,
        "meta_bstar": 0,
        "meta_mean_motion_dot": 0,
        "meta_mean_motion_ddot": 0,
        "tle_line1": "1 39360U 13058A   25347.96541907  .00000000  00000+0  00000+0 0  9998",
        "tle_line2": "2 39360   0.0084  59.3397 0003047 118.3918 136.5674  1.00271098 44217"
      },
      "geometry": {
        "type": "Point",
        "coordinates": [
          -109.1909742861485,
          -0.011039945496003728
        ]
      }
    },
    {
      "type": "Feature",
      "properties": {
        "norad_id": 40271,
        "name": "INTELSAT 30 (IS-30)",
        "group": "intelsat",
        "lat": -0.03037757738006649,
        "lon": -88.14319756749039,
        "alt_km": 35792.477045344014,
        "timestamp": "2025-12-14T18:52:55.166002+00:00",
        "meta_object_name": "INTELSAT 30 (IS-30)",
        "meta_object_id": "2014-062A",
        "meta_epoch": "2025-12-13T21:33:28.971936",
        "meta_mean_motion": 1.00270092,
        "meta_eccentricity": 0.00013907,
        "meta_inclination": 0.0158,
        "meta_ra_of_asc_node": 24.7661,
        "meta_arg_of_pericenter": 67.8446,
        "meta_mean_anomaly": 218.5264,
        "meta_ephemeris_type": 0,
        "meta_classification_type": "U",
        "meta_norad_cat_id": 40271,
        "meta_element_set_no": 999,
        "meta_rev_at_epoch": 492,
        "meta_bstar": 0,
        "meta_mean_motion_dot": -1.34e-06,
        "meta_mean_motion_ddot": 0,
        "tle_line1": "1 40271U 14062A   25347.89825199 -.00000134  00000+0  00000+0 0  9996",
        "tle_line2": "2 40271   0.0158  24.7661 0001390  67.8446 218.5264  1.00270092  4928"
      },
      "geometry": {
        "type": "Point",
        "coordinates": [
          -88.14319756749039,
          -0.03037757738006649
        ]
      }
    },
    {
      "type": "Feature",
      "properties": {
        "norad_id": 40333,
        "name": "DIRECTV 14",
        "group": "intelsat",
        "lat": -0.03734035252351285,
        "lon": -92.30823368866962,
        "alt_km": 35787.03783013942,
        "timestamp": "2025-12-14T18:52:55.166014+00:00",
        "meta_object_name": "DIRECTV 14",
        "meta_object_id": "2014-078B",
        "meta_epoch": "2025-12-13T21:32:14.091648",
        "meta_mean_motion": 1.00270154,
        "meta_eccentricity": 2.647e-05,
        "meta_inclination": 0.0202,
        "meta_ra_of_asc_node": 333.1768,
        "meta_arg_of_pericenter": 179.3801,
        "meta_mean_anomaly": 154.0996,
        "meta_ephemeris_type": 0,
        "meta_classification_type": "U",
        "meta_norad_cat_id": 40333,
        "meta_element_set_no": 999,
        "meta_rev_at_epoch": 4018,
        "meta_bstar": 0,
        "meta_mean_motion_dot": -1.09e-06,
        "meta_mean_motion_ddot": 0,
        "tle_line1": "1 40333U 14078B   25347.89738532 -.00000109  00000+0  00000+0 0  9998",
        "tle_line2": "2 40333   0.0202 333.1768 0000264 179.3801 154.0996  1.00270154 40188"
      },
      "geometry": {
        "type": "Point",
        "coordinates": [
          -92.30823368866962,
          -0.03734035252351285
        ]
      }
    },
    {
      "type": "Feature",
      "properties": {
        "norad_id": 40663,
        "name": "DIRECTV 15",
        "group": "intelsat",
        "lat": -0.020137522801208476,
        "lon": -95.94599663827009,
        "alt_km": 35786.11681751114,
        "timestamp": "2025-12-14T18:52:55.166026+00:00",
        "meta_object_name": "DIRECTV 15",
        "meta_object_id": "2015-026A",
        "meta_epoch": "2025-12-13T21:31:14.187072",
        "meta_mean_motion": 1.00270171,
        "meta_eccentricity": 2.264e-05,
        "meta_inclination": 0.0394,
        "meta_ra_of_asc_node": 85.7239,
        "meta_arg_of_pericenter": 114.937,
        "meta_mean_anomaly": 102.1077,
        "meta_ephemeris_type": 0,
        "meta_classification_type": "U",
        "meta_norad_cat_id": 40663,
        "meta_element_set_no": 999,
        "meta_rev_at_epoch": 3860,
        "meta_bstar": 0,
        "meta_mean_motion_dot": -8.6e-07,
        "meta_mean_motion_ddot": 0,
        "tle_line1": "1 40663U 15026A   25347.89669198 -.00000086  00000+0  00000+0 0  9993",
        "tle_line2": "2 40663   0.0394  85.7239 0000226 114.9370 102.1077  1.00270171 38600"
      },
      "geometry": {
        "type": "Point",
        "coordinates": [
          -95.94599663827009,
          -0.020137522801208476
        ]
      }
    },
    {
      "type": "Feature",
      "properties": {
        "norad_id": 40664,
        "name": "SKY MEXICO-1",
        "group": "intelsat",
        "lat": -0.03140786880380026,
        "lon": -71.83756817804789,
        "alt_km": 35775.630743869566,
        "timestamp": "2025-12-14T18:52:55.166038+00:00",
        "meta_object_name": "SKY MEXICO-1",
        "meta_object_id": "2015-026B",
        "meta_epoch": "2025-12-13T21:38:06.029952",
        "meta_mean_motion": 1.00272137,
        "meta_eccentricity": 0.00024999,
        "meta_inclination": 0.0396,
        "meta_ra_of_asc_node": 81.0446,
        "meta_arg_of_pericenter": 198.005,
        "meta_mean_anomaly": 49.5399,
        "meta_ephemeris_type": 0,
        "meta_classification_type": "U",
        "meta_norad_cat_id": 40664,
        "meta_element_set_no": 999,
        "meta_rev_at_epoch": 3859,
        "meta_bstar": 0,
        "meta_mean_motion_dot": -2.18e-06,
        "meta_mean_motion_ddot": 0,
        "tle_line1": "1 40664U 15026B   25347.90145868 -.00000218  00000+0  00000+0 0  9996",
        "tle_line2": "2 40664   0.0396  81.0446 0002499 198.0050  49.5399  1.00272137 38597"
      },
      "geometry": {
        "type": "Point",
        "coordinates": [
          -71.83756817804789,
          -0.03140786880380026
        ]
      }
    },
    {
      "type": "Feature",
      "properties": {
        "norad_id": 40874,
        "name": "INTELSAT 34 (IS-34)",
        "group": "intelsat",
        "lat": -0.005613913474591409,
        "lon": -48.568041136804574,
        "alt_km": 35788.227865682755,
        "timestamp": "2025-12-14T18:52:55.166050+00:00",
        "meta_object_name": "INTELSAT 34 (IS-34)",
        "meta_object_id": "2015-039A",
        "meta_epoch": "2025-12-13T23:27:25.557696",
        "meta_mean_motion": 1.00274413,
        "meta_eccentricity": 7.229e-05,
        "meta_inclination": 0.0104,
        "meta_ra_of_asc_node": 314.3772,
        "meta_arg_of_pericenter": 200.178,
        "meta_mean_anomaly": 224.7051,
        "meta_ephemeris_type": 0,
        "meta_classification_type": "U",
        "meta_norad_cat_id": 40874,
        "meta_element_set_no": 999,
        "meta_rev_at_epoch": 3776,
        "meta_bstar": 0,
        "meta_mean_motion_dot": -2.69e-06,
        "meta_mean_motion_ddot": 0,
        "tle_line1": "1 40874U 15039A   25347.97737914 -.00000269  00000+0  00000+0 0  9995",
        "tle_line2": "2 40874   0.0104 314.3772 0000722 200.1780 224.7051  1.00274413 37762"
      },
      "geometry": {
        "type": "Point",
        "coordinates": [
          -48.568041136804574,
          -0.005613913474591409
        ]
      }
    }
  ]
}